start=new Date('2022-04-10T00:00:00.000Z').valueOf();
sats=[{"ELEMENT_SET_NO":"999","FILE":"3395351","MEAN_ANOMALY":"311.0293","MEAN_MOTION":"15.06407149","RA_OF_ASC_NODE":"130.7572","OBJECT_ID":"2021-017AZ","SEMIMAJOR_AXIS":"6925.327","CLASSIFICATION_TYPE":"U","MEAN_MOTION_DDOT":"0.0000000000000","EPOCH":"2022-04-09T18:31:39.348480","REV_AT_EPOCH":"6253","APOAPSIS":"548.402","DECAY_DATE":null,"ECCENTRICITY":"0.00017480","GP_ID":"200863110","TLE_LINE1":"1 47769U 21017AZ  22099.77198320  .00000693  00000-0  65437-4 0  9990","INCLINATION":"53.0547","REF_FRAME":"TEME","SITE":"AFETR","BSTAR":"0.00006543700000","MEAN_ELEMENT_THEORY":"SGP4","RCS_SIZE":"LARGE","TIME_SYSTEM":"UTC","EPHEMERIS_TYPE":"0","NORAD_CAT_ID":"47769","ARG_OF_PERICENTER":"49.0847","MEAN_MOTION_DOT":"0.00000693","OBJECT_TYPE":"PAYLOAD","PERIOD":"95.592","COUNTRY_CODE":"US","CENTER_NAME":"EARTH","PERIAPSIS":"545.981","TLE_LINE2":"2 47769  53.0547 130.7572 0001748  49.0847 311.0293 15.06407149 62538","LAUNCH_DATE":"2021-03-04","OBJECT_NAME":"STARLINK-2192"},{"INCLINATION":"53.0504","TLE_LINE1":"1 47770U 21017BA  22099.84616502 -.00001558  00000-0 -85684-4 0  9996","REF_FRAME":"TEME","DECAY_DATE":null,"GP_ID":"200861885","ECCENTRICITY":"0.00021100","APOAPSIS":"548.681","EPOCH":"2022-04-09T20:18:28.657728","REV_AT_EPOCH":"6231","CLASSIFICATION_TYPE":"U","MEAN_MOTION_DDOT":"0.0000000000000","SEMIMAJOR_AXIS":"6925.354","ELEMENT_SET_NO":"999","FILE":"3395351","MEAN_MOTION":"15.06398123","MEAN_ANOMALY":"319.0763","OBJECT_ID":"2021-017BA","RA_OF_ASC_NODE":"145.4534","OBJECT_NAME":"STARLINK-2193","CENTER_NAME":"EARTH","TLE_LINE2":"2 47770  53.0504 145.4534 0002110  41.0384 319.0763 15.06398123 62313","PERIAPSIS":"545.758","LAUNCH_DATE":"2021-03-04","COUNTRY_CODE":"US","PERIOD":"95.592","MEAN_MOTION_DOT":"-0.00001558","OBJECT_TYPE":"PAYLOAD","ARG_OF_PERICENTER":"41.0384","RCS_SIZE":"LARGE","TIME_SYSTEM":"UTC","NORAD_CAT_ID":"47770","EPHEMERIS_TYPE":"0","SITE":"AFETR","BSTAR":"-0.00008568400000","MEAN_ELEMENT_THEORY":"SGP4"},{"ARG_OF_PERICENTER":"60.1629","MEAN_MOTION_DOT":"-0.00003468","OBJECT_TYPE":"PAYLOAD","BSTAR":"-0.00021408000000","MEAN_ELEMENT_THEORY":"SGP4","SITE":"AFETR","NORAD_CAT_ID":"47771","EPHEMERIS_TYPE":"0","TIME_SYSTEM":"UTC","RCS_SIZE":"LARGE","LAUNCH_DATE":"2021-03-04","CENTER_NAME":"EARTH","PERIAPSIS":"546.023","TLE_LINE2":"2 47771  53.0551 145.3908 0001759  60.1629 299.9534 15.06390931 61660","OBJECT_NAME":"STARLINK-2194","PERIOD":"95.593","COUNTRY_CODE":"US","SEMIMAJOR_AXIS":"6925.376","MEAN_MOTION_DDOT":"0.0000000000000","CLASSIFICATION_TYPE":"U","RA_OF_ASC_NODE":"145.3908","OBJECT_ID":"2021-017BB","FILE":"3395147","ELEMENT_SET_NO":"999","MEAN_MOTION":"15.06390931","MEAN_ANOMALY":"299.9534","GP_ID":"200836558","ECCENTRICITY":"0.00017590","DECAY_DATE":null,"INCLINATION":"53.0551","TLE_LINE1":"1 47771U 21017BB  22099.85722549 -.00003468  00000-0 -21408-3 0  9992","REF_FRAME":"TEME","REV_AT_EPOCH":"6166","EPOCH":"2022-04-09T20:34:24.282336","APOAPSIS":"548.460"},{"ARG_OF_PERICENTER":"61.4621","MEAN_MOTION_DOT":"-0.00001115","OBJECT_TYPE":"PAYLOAD","BSTAR":"-0.00005594000000","MEAN_ELEMENT_THEORY":"SGP4","SITE":"AFETR","EPHEMERIS_TYPE":"0","NORAD_CAT_ID":"47772","TIME_SYSTEM":"UTC","RCS_SIZE":"LARGE","LAUNCH_DATE":"2021-03-04","CENTER_NAME":"EARTH","TLE_LINE2":"2 47772  53.0547 161.9183 0001779  61.4621 298.6547 15.06396397 62037","PERIAPSIS":"545.993","OBJECT_NAME":"STARLINK-2195","PERIOD":"95.592","COUNTRY_CODE":"US","SEMIMAJOR_AXIS":"6925.360","CLASSIFICATION_TYPE":"U","MEAN_MOTION_DDOT":"0.0000000000000","RA_OF_ASC_NODE":"161.9183","OBJECT_ID":"2021-017BC","MEAN_MOTION":"15.06396397","FILE":"3394949","ELEMENT_SET_NO":"999","MEAN_ANOMALY":"298.6547","GP_ID":"200828581","ECCENTRICITY":"0.00017790","DECAY_DATE":null,"TLE_LINE1":"1 47772U 21017BC  22099.51489050 -.00001115  00000-0 -55940-4 0  9999","REF_FRAME":"TEME","INCLINATION":"53.0547","REV_AT_EPOCH":"6203","EPOCH":"2022-04-09T12:21:26.539200","APOAPSIS":"548.457"},{"INCLINATION":"53.0538","TLE_LINE1":"1 47773U 21017BD  22099.51120199 -.00003024  00000-0 -18416-3 0  9993","REF_FRAME":"TEME","DECAY_DATE":null,"ECCENTRICITY":"0.00017170","GP_ID":"200828831","APOAPSIS":"548.404","EPOCH":"2022-04-09T12:16:07.851936","REV_AT_EPOCH":"6202","MEAN_MOTION_DDOT":"0.0000000000000","CLASSIFICATION_TYPE":"U","SEMIMAJOR_AXIS":"6925.350","ELEMENT_SET_NO":"999","FILE":"3394949","MEAN_MOTION":"15.06399485","MEAN_ANOMALY":"311.2572","RA_OF_ASC_NODE":"161.9444","OBJECT_ID":"2021-017BD","OBJECT_NAME":"STARLINK-2196","TLE_LINE2":"2 47773  53.0538 161.9444 0001717  48.8565 311.2572 15.06399485 62026","PERIAPSIS":"546.026","CENTER_NAME":"EARTH","LAUNCH_DATE":"2021-03-04","COUNTRY_CODE":"US","PERIOD":"95.592","OBJECT_TYPE":"PAYLOAD","MEAN_MOTION_DOT":"-0.00003024","ARG_OF_PERICENTER":"48.8565","TIME_SYSTEM":"UTC","RCS_SIZE":"LARGE","NORAD_CAT_ID":"47773","EPHEMERIS_TYPE":"0","SITE":"AFETR","MEAN_ELEMENT_THEORY":"SGP4","BSTAR":"-0.00018416000000"},{"REF_FRAME":"TEME","TLE_LINE1":"1 47774U 21017BE  22099.90560918  .00005929  00000-0  41647-3 0  9990","INCLINATION":"53.0535","GP_ID":"200862385","ECCENTRICITY":"0.00016530","DECAY_DATE":null,"APOAPSIS":"548.321","REV_AT_EPOCH":"6209","EPOCH":"2022-04-09T21:44:04.633152","MEAN_MOTION_DDOT":"0.0000000000000","CLASSIFICATION_TYPE":"U","SEMIMAJOR_AXIS":"6925.312","OBJECT_ID":"2021-017BE","RA_OF_ASC_NODE":"160.1706","MEAN_ANOMALY":"315.4789","FILE":"3395351","ELEMENT_SET_NO":"999","MEAN_MOTION":"15.06412063","OBJECT_NAME":"STARLINK-2197","LAUNCH_DATE":"2021-03-04","CENTER_NAME":"EARTH","PERIAPSIS":"546.032","TLE_LINE2":"2 47774  53.0535 160.1706 0001653  44.6333 315.4789 15.06412063 62093","COUNTRY_CODE":"US","PERIOD":"95.591","MEAN_MOTION_DOT":"0.00005929","OBJECT_TYPE":"PAYLOAD","ARG_OF_PERICENTER":"44.6333","NORAD_CAT_ID":"47774","EPHEMERIS_TYPE":"0","TIME_SYSTEM":"UTC","RCS_SIZE":"LARGE","BSTAR":"0.00041647000000","MEAN_ELEMENT_THEORY":"SGP4","SITE":"AFETR"},{"FILE":"3395351","MEAN_ANOMALY":"309.0573","ELEMENT_SET_NO":"999","MEAN_MOTION":"15.06398241","RA_OF_ASC_NODE":"161.3104","OBJECT_ID":"2021-017BF","SEMIMAJOR_AXIS":"6925.354","MEAN_MOTION_DDOT":"0.0000000000000","CLASSIFICATION_TYPE":"U","EPOCH":"2022-04-09T15:37:49.842048","REV_AT_EPOCH":"6210","APOAPSIS":"548.460","DECAY_DATE":null,"ECCENTRICITY":"0.00017920","GP_ID":"200862139","TLE_LINE1":"1 47775U 21017BF  22099.65127132 -.00002690  00000-0 -16176-3 0  9993","INCLINATION":"53.0529","REF_FRAME":"TEME","SITE":"AFETR","BSTAR":"-0.00016176000000","MEAN_ELEMENT_THEORY":"SGP4","TIME_SYSTEM":"UTC","RCS_SIZE":"LARGE","EPHEMERIS_TYPE":"0","NORAD_CAT_ID":"47775","ARG_OF_PERICENTER":"51.0575","MEAN_MOTION_DOT":"-0.00002690","OBJECT_TYPE":"PAYLOAD","PERIOD":"95.592","COUNTRY_CODE":"US","CENTER_NAME":"EARTH","PERIAPSIS":"545.978","TLE_LINE2":"2 47775  53.0529 161.3104 0001792  51.0575 309.0573 15.06398241 62109","LAUNCH_DATE":"2021-03-04","OBJECT_NAME":"STARLINK-2198"},{"EPHEMERIS_TYPE":"0","NORAD_CAT_ID":"47776","RCS_SIZE":"LARGE","TIME_SYSTEM":"UTC","MEAN_ELEMENT_THEORY":"SGP4","BSTAR":"-0.00017024000000","SITE":"AFETR","OBJECT_TYPE":"PAYLOAD","MEAN_MOTION_DOT":"-0.00002816","ARG_OF_PERICENTER":"44.6479","COUNTRY_CODE":"US","PERIOD":"95.592","OBJECT_NAME":"STARLINK-2209","LAUNCH_DATE":"2021-03-04","TLE_LINE2":"2 47776  53.0533 151.4875 0001796  44.6479 315.4654 15.06396023 62203","PERIAPSIS":"545.982","CENTER_NAME":"EARTH","OBJECT_ID":"2021-017BG","RA_OF_ASC_NODE":"151.4875","FILE":"3395351","MEAN_MOTION":"15.06396023","ELEMENT_SET_NO":"999","MEAN_ANOMALY":"315.4654","CLASSIFICATION_TYPE":"U","MEAN_MOTION_DDOT":"0.0000000000000","SEMIMAJOR_AXIS":"6925.361","APOAPSIS":"548.470","REV_AT_EPOCH":"6220","EPOCH":"2022-04-09T14:40:46.058016","TLE_LINE1":"1 47776U 21017BG  22099.61164419 -.00002816  00000-0 -17024-3 0  9992","INCLINATION":"53.0533","REF_FRAME":"TEME","GP_ID":"200862881","ECCENTRICITY":"0.00017960","DECAY_DATE":null},{"OBJECT_TYPE":"PAYLOAD","MEAN_MOTION_DOT":"-0.00001255","ARG_OF_PERICENTER":"43.6769","NORAD_CAT_ID":"47777","EPHEMERIS_TYPE":"0","RCS_SIZE":"LARGE","TIME_SYSTEM":"UTC","MEAN_ELEMENT_THEORY":"SGP4","BSTAR":"-0.00006537800000","SITE":"AFETR","OBJECT_NAME":"STARLINK-2210","LAUNCH_DATE":"2021-03-04","TLE_LINE2":"2 47777  53.0535 151.4818 0001871  43.6769 316.4368 15.06394716 62208","PERIAPSIS":"545.934","CENTER_NAME":"EARTH","COUNTRY_CODE":"US","PERIOD":"95.592","MEAN_MOTION_DDOT":"0.0000000000000","CLASSIFICATION_TYPE":"U","SEMIMAJOR_AXIS":"6925.365","RA_OF_ASC_NODE":"151.4818","OBJECT_ID":"2021-017BH","FILE":"3395351","MEAN_MOTION":"15.06394716","ELEMENT_SET_NO":"999","MEAN_ANOMALY":"316.4368","REF_FRAME":"TEME","TLE_LINE1":"1 47777U 21017BH  22099.61533214 -.00001255  00000-0 -65378-4 0  9998","INCLINATION":"53.0535","GP_ID":"200863111","ECCENTRICITY":"0.00018710","DECAY_DATE":null,"APOAPSIS":"548.525","REV_AT_EPOCH":"6220","EPOCH":"2022-04-09T14:46:04.696896"},{"REV_AT_EPOCH":"6223","EPOCH":"2022-04-09T20:20:28.803840","APOAPSIS":"548.293","GP_ID":"200861886","ECCENTRICITY":"0.00015250","DECAY_DATE":null,"INCLINATION":"53.0536","TLE_LINE1":"1 47778U 21017BJ  22099.84755560 -.00000206  00000-0  50569-5 0  9995","REF_FRAME":"TEME","RA_OF_ASC_NODE":"150.4258","OBJECT_ID":"2021-017BJ","FILE":"3395351","ELEMENT_SET_NO":"999","MEAN_ANOMALY":"304.0301","MEAN_MOTION":"15.06392444","SEMIMAJOR_AXIS":"6925.372","MEAN_MOTION_DDOT":"0.0000000000000","CLASSIFICATION_TYPE":"U","PERIOD":"95.593","COUNTRY_CODE":"US","LAUNCH_DATE":"2021-03-04","TLE_LINE2":"2 47778  53.0536 150.4258 0001525  56.0833 304.0301 15.06392444 62232","PERIAPSIS":"546.181","CENTER_NAME":"EARTH","OBJECT_NAME":"STARLINK-2211","MEAN_ELEMENT_THEORY":"SGP4","BSTAR":"0.00000505690000","SITE":"AFETR","EPHEMERIS_TYPE":"0","NORAD_CAT_ID":"47778","TIME_SYSTEM":"UTC","RCS_SIZE":"LARGE","ARG_OF_PERICENTER":"56.0833","OBJECT_TYPE":"PAYLOAD","MEAN_MOTION_DOT":"-0.00000206"}];
